OBJECT_NAME,OBJECT_ID,EPOCH,MEAN_MOTION,ECCENTRICITY,INCLINATION,RA_OF_ASC_NODE,ARG_OF_PERICENTER,MEAN_ANOMALY,EPHEMERIS_TYPE,CLASSIFICATION_TYPE,NORAD_CAT_ID,ELEMENT_SET_NO,REV_AT_EPOCH,BSTAR,MEAN_MOTION_DOT,MEAN_MOTION_DDOT
STARLINK-31740,2024-065N,2026-06-07T12:01:03.687168,15.30185027,.0001111,53.1600,226.3771,97.1617,262.9510,0,U,59433,999,12265,-.40377E-4,-.1554E-4,0
STARLINK-31580,2024-065P,2026-06-07T12:13:12.848736,15.30180656,.0001171,53.1592,226.4305,92.3831,267.7303,0,U,59434,999,12265,.26593E-4,.428E-5,0
STARLINK-31696,2024-065Q,2026-06-07T20:00:04.000032,15.33468148,.0001142,53.1596,222.8439,89.9775,230.0224,0,U,59435,999,589,.12478E-2,.40784E-3,0
STARLINK-31700,2024-065R,2026-06-07T12:12:27.216576,15.30184503,.0001125,53.1597,224.2920,87.4355,272.6774,0,U,59436,999,12268,-.18261E-4,-.9E-5,0
STARLINK-31706,2024-065S,2026-06-07T12:02:35.462976,15.30178552,.0001246,53.1598,226.3894,95.1169,264.9974,0,U,59437,999,12265,-.2879E-5,-.444E-5,0
STARLINK-31711,2024-065T,2026-06-07T10:42:57.072096,15.30193435,.0001388,53.1596,224.6170,75.4354,284.6801,0,U,59438,999,12267,-.81723E-6,-.383E-5,0
STARLINK-31708,2024-065U,2026-06-07T12:03:19.953792,15.30184873,.0001246,53.1602,224.2506,113.3477,246.7655,0,U,59439,999,12268,-.16582E-4,-.85E-5,0
STARLINK-31693,2024-065W,2026-06-07T11:05:45.286080,15.30180487,.0001511,53.1600,224.7159,93.4512,266.6661,0,U,59441,999,12267,-.36567E-4,-.1441E-4,0
STARLINK-31622,2024-068B,2026-06-06T23:08:35.426688,15.27562519,.0001992,43.0053,250.5622,279.9221,80.1405,0,U,59456,999,12217,-.62108E-4,-.197E-4,0
STARLINK-31319,2024-068C,2026-06-07T12:41:29.697216,15.27588414,.0001122,43.0007,243.5983,268.3450,91.7273,0,U,59457,999,12230,.70271E-4,.1673E-4,0
STARLINK-31625,2024-068D,2026-06-07T13:01:11.580096,15.27556714,.000085,42.9954,247.1519,230.6824,129.3952,0,U,59458,999,12226,-.98613E-4,-.2972E-4,0
STARLINK-31631,2024-068E,2026-06-07T12:21:10.143072,15.27572670,.0001577,42.9994,243.4864,253.7035,106.3643,0,U,59459,999,12230,-.18367E-4,-.767E-5,0
STARLINK-31620,2024-068F,2026-06-07T12:52:38.091072,15.27574166,.000128,42.9998,243.6522,265.7852,94.2853,0,U,59460,999,12230,-.32763E-4,-.1163E-4,0
STARLINK-31511,2024-068H,2026-06-01T09:39:41.523552,15.27588796,.00016894,43.0038,281.9116,221.0644,139.0081,0,U,59462,999,12132,.55610171E-4,.1269E-4,0
STARLINK-31364,2024-068J,2026-06-07T12:32:17.526048,15.27551417,.0003233,42.9924,243.5404,280.6748,79.3739,0,U,59463,999,12230,-.26287E-3,-.7484E-4,0
STARLINK-31597,2024-068K,2026-06-06T13:23:16.891296,15.27567500,.0000827,42.9975,252.6626,251.1347,108.9415,0,U,59464,999,12206,-.3716E-4,-.1284E-4,0
STARLINK-31621,2024-068L,2026-06-06T13:32:28.491360,15.27606154,.0000607,42.9974,252.7256,107.3299,252.7619,0,U,59465,999,12211,.11642E-3,.2946E-4,0
STARLINK-31462,2024-068M,2026-06-07T12:44:31.010208,15.27568064,.0001904,43.0004,247.0501,272.8845,87.1789,0,U,59466,999,12226,-.89404E-4,-.2721E-4,0
STARLINK-31592,2024-068N,2026-06-07T13:21:31.353696,15.27582585,.0001176,43.0003,247.2624,285.1873,74.8849,0,U,59467,999,12226,.40053E-4,.84E-5,0
STARLINK-31267,2024-068P,2026-06-07T09:57:02.773152,15.27538082,.0001767,42.9972,243.5772,192.8886,167.1920,0,U,59468,999,12229,.24092E-4,.4E-5,0
STARLINK-31381,2024-068Q,2026-06-07T13:03:43.322688,15.27573690,.000071,43.0018,243.7108,144.7988,215.2910,0,U,59469,999,12230,-.27997E-4,-.1032E-4,0
STARLINK-31546,2024-068R,2026-06-07T12:35:59.785728,15.27494404,.0001086,42.9994,243.5627,248.9435,111.1301,0,U,59470,999,12230,.72005E-3,.19553E-3,0
STARLINK-31575,2024-068S,2026-06-07T12:47:04.572384,15.27567778,.0001091,43.0010,243.6202,267.4909,92.5818,0,U,59471,999,12230,-.36201E-4,-.1258E-4,0
STARLINK-31610,2024-068U,2026-06-05T13:28:43.527360,15.27587928,.00013939,42.9999,258.0867,285.0020,75.0677,0,U,59473,999,12196,.10987313E-3,.2763E-4,0
STARLINK-31581,2024-068V,2026-06-07T12:33:00.027072,15.27550036,.0000833,43.0040,240.0762,239.9759,120.1010,0,U,59474,999,12234,-.12978E-3,-.3828E-4,0
STARLINK-31566,2024-068W,2026-06-07T12:38:56.948064,15.27586183,.0000242,43.0027,247.0357,186.8496,173.2352,0,U,59475,999,12226,.15444E-4,.163E-5,0
STARLINK-31515,2024-068X,2026-06-07T12:50:04.566048,15.27570503,.0000874,43.0005,247.0939,250.7561,109.3196,0,U,59476,999,12226,-.31356E-4,-.1124E-4,0
STARLINK-31531,2024-068Y,2026-06-07T08:48:37.730304,15.27576186,.0001837,43.0006,192.9124,265.7091,94.3550,0,U,59477,999,12286,.34467E-5,-.167E-5,0
STARLINK-31753,2024-071A,2026-06-07T18:50:38.289696,15.27561338,.0001746,42.9944,191.0086,258.1571,101.9085,0,U,59484,999,12198,.6469E-3,.17572E-3,0
STARLINK-31733,2024-071C,2026-06-06T09:10:45.651648,15.27579810,.00017681,43.0016,198.5440,274.3820,85.6830,0,U,59486,999,12177,.36036509E-4,.729E-5,0
STARLINK-31657,2024-071D,2026-06-07T18:32:07.030176,15.27557254,.0000675,43.0048,190.9147,265.9922,94.0853,0,U,59487,999,12198,.17653E-3,.4595E-4,0
STARLINK-31754,2024-071E,2026-06-07T19:52:07.029696,15.27580911,.0001336,43.0013,198.2555,254.0947,105.9758,0,U,59488,999,12190,.25887E-4,.45E-5,0
STARLINK-31638,2024-071F,2026-06-05T10:00:37.003680,15.27586373,.00009502,42.9963,204.1930,269.0070,91.0673,0,U,59489,999,12162,.11913923E-3,.3019E-4,0
STARLINK-31670,2024-071G,2026-06-07T09:33:05.776128,15.27528910,.0000736,42.9996,204.5306,245.8160,114.2615,0,U,59490,999,12179,-.23072E-3,-.6595E-4,0
STARLINK-31712,2024-071H,2026-06-07T09:34:53.433120,15.27571386,.000161,42.9998,204.5218,270.1269,89.9398,0,U,59491,999,12179,-.41907E-4,-.1415E-4,0
STARLINK-31684,2024-071J,2026-06-01T07:02:00.170592,15.27584089,.00025493,42.9922,235.1989,171.2206,188.8691,0,U,59492,999,12090,.10180997E-3,.2541E-4,0
STARLINK-31678,2024-071K,2026-06-06T09:37:19.489728,15.27584290,.00014417,42.9994,206.4690,286.1439,73.9254,0,U,59493,999,12050,.42747158E-4,.914E-5,0
STARLINK-31744,2024-071L,2026-06-07T05:55:48.758304,15.27579861,.0001259,43.0011,201.6388,286.4328,73.6385,0,U,59494,999,12181,.22191E-4,.349E-5,0
STARLINK-31719,2024-071M,2026-06-07T19:09:06.570144,15.27573606,.0001084,43.0003,191.1088,269.4144,90.6584,0,U,59495,999,12198,-.12357E-4,-.602E-5,0
STARLINK-31728,2024-071N,2026-06-07T18:39:29.414592,15.27603675,.0003186,42.9980,190.9423,278.0919,81.9571,0,U,59496,999,12198,.75519E-3,.20594E-3,0
STARLINK-31720,2024-071P,2026-06-07T19:33:10.359072,15.27571927,.0001414,43.0018,191.2361,262.5681,97.5010,0,U,59497,999,12198,-.17274E-4,-.737E-5,0
STARLINK-31731,2024-071Q,2026-06-07T13:23:46.859136,15.27530346,.0000801,43.0026,191.8861,149.1483,210.9416,0,U,59498,999,12195,-.21759E-3,-.6235E-4,0
STARLINK-31742,2024-071R,2026-06-07T08:54:12.335040,15.27577772,.0001611,43.0001,193.0548,267.4152,92.6515,0,U,59499,999,12192,.24735E-4,.418E-5,0
STARLINK-31512,2024-071S,2026-06-07T16:15:15.784128,15.27573805,.0000933,43.0016,151.3926,272.9221,87.1524,0,U,59500,999,12242,.209E-4,.313E-5,0
STARLINK-31458,2024-071T,2026-06-07T09:01:36.760224,15.27577643,.0001363,43.0000,193.0962,276.0403,84.0293,0,U,59501,999,12192,-.1517E-4,-.679E-5,0
STARLINK-31357,2024-071U,2026-06-07T05:12:50.641056,15.27542720,.0000978,42.9979,194.4798,218.9730,141.1052,0,U,59502,999,12189,-.15763E-3,-.4592E-4,0
STARLINK-31508,2024-071V,2026-06-07T19:25:45.501888,15.27575959,.0001343,43.0017,191.1930,263.5596,96.5102,0,U,59503,999,12198,.25451E-5,-.192E-5,0
STARLINK-31535,2024-071W,2026-06-07T09:15:05.447808,15.27694945,.0001372,43.0046,200.9546,198.5920,161.4882,0,U,59504,999,12183,.59274E-3,.16142E-3,0
STARLINK-31533,2024-071X,2026-06-07T19:36:51.233760,15.27582350,.0001571,43.0018,191.2497,256.0498,104.0179,0,U,59505,999,12198,.35549E-4,.716E-5,0
STARLINK-31524,2024-071Y,2026-06-07T19:01:10.106976,15.27596789,.0001542,43.0008,183.9466,248.6402,111.4285,0,U,59506,999,12206,.1082E-3,.2718E-4,0
STARLINK-31635,2024-073A,2026-06-07T18:00:53.193024,15.27577689,.0001429,43.0029,169.0334,261.2762,98.7928,0,U,59511,999,11995,.2027E-4,.296E-5,0
STARLINK-31650,2024-073B,2026-06-07T17:18:32.805792,15.27573458,.0001513,43.0011,169.6656,272.5369,87.5309,0,U,59512,999,11994,.2792E-4,.506E-5,0
STARLINK-31658,2024-073C,2026-06-07T14:50:32.797824,15.27573042,.0000966,43.0016,129.8780,272.4955,87.5786,0,U,59513,999,12038,.15226E-4,.157E-5,0
STARLINK-31669,2024-073E,2026-06-05T08:11:54.112128,15.27582914,.00015769,43.0020,182.7692,270.5859,89.4812,0,U,59515,999,11958,.36679989E-4,.747E-5,0
STARLINK-31671,2024-073F,2026-06-07T17:33:20.678112,15.27580817,.0001404,42.9998,169.7407,268.0004,92.0687,0,U,59516,999,11994,.30176E-4,.568E-5,0
STARLINK-31674,2024-073G,2026-06-07T07:33:20.210400,15.27510516,.0001253,42.9977,171.7745,92.1623,267.9372,0,U,59517,999,11988,-.29742E-3,-.842E-4,0
STARLINK-31679,2024-073J,2026-06-07T16:47:19.606272,15.27574955,.0001267,43.0003,159.1155,272.3724,87.6983,0,U,59519,999,12006,.13081E-4,.98E-6,0
STARLINK-31370,2024-073K,2026-06-07T17:29:38.980896,15.27574376,.0001154,42.9982,169.7233,272.9122,87.1598,0,U,59520,999,11994,.1604E-4,.179E-5,0
STARLINK-31404,2024-073L,2026-06-07T17:44:27.280032,15.27576968,.0000951,43.0010,169.7998,280.6323,79.4421,0,U,59521,999,11994,-.11741E-4,-.585E-5,0
STARLINK-31453,2024-073M,2026-06-07T16:48:39.178944,15.27584564,.0001027,43.0034,151.9108,268.0649,92.0085,0,U,59522,999,12014,.29274E-3,.7803E-4,0
STARLINK-31476,2024-073N,2026-06-07T17:24:06.361632,15.27607357,.0001809,42.9989,169.6926,277.5301,82.5345,0,U,59523,999,11994,-.2171E-3,-.6237E-4,0
STARLINK-31538,2024-073Q,2026-06-07T07:22:09.077664,15.27575725,.0001427,42.9996,171.7141,257.0569,103.0123,0,U,59525,999,11988,.10812E-4,.35E-6,0
STARLINK-31564,2024-073R,2026-06-07T18:10:08.256000,15.27577231,.0001796,43.0020,169.0737,266.3745,93.6901,0,U,59526,999,11995,.15693E-4,.17E-5,0
STARLINK-31452,2024-073S,2026-06-07T17:38:55.021056,15.27565824,.0001529,43.0006,169.7701,265.0512,95.0165,0,U,59527,999,11994,.11741E-3,.2969E-4,0
STARLINK-31513,2024-073U,2026-06-07T17:35:53.294208,15.27579924,.0000744,43.0019,166.2573,276.8517,83.2250,0,U,59529,999,11998,.34352E-4,.684E-5,0
